{"type": "FeatureCollection", "features": [ {"type": "Feature", "properties": {"norad_id": 31327, "name": "FENGYUN 1C DEB", "group": "fengyun-1c-debris", "lat": -79.86897175858329, "lon": 105.95830829565968, "alt_km": 554.8941706680944, "timestamp": "2025-12-12T20:43:07.317056+00:00", "meta": {"OBJECT_NAME": "FENGYUN 1C DEB", "OBJECT_ID": "1999-025BQF", "EPOCH": "2025-12-11T06:59:13.876512", "MEAN_MOTION": 15.1078017, "ECCENTRICITY": 0.00872498, "INCLINATION": 98.9845, "RA_OF_ASC_NODE": 346.4207, "ARG_OF_PERICENTER": 14.713, "MEAN_ANOMALY": 345.6604, "EPHEMERIS_TYPE": 0, "CLASSIFICATION_TYPE": "U", "NORAD_CAT_ID": 31327, "ELEMENT_SET_NO": 999, "REV_AT_EPOCH": 77, "BSTAR": 0.0029833643, "MEAN_MOTION_DOT": 0.00054515, "MEAN_MOTION_DDOT": 0}, "tle": {"line1": "1 31327U 99025BQF 25345.29113283  .00054515  00000+0  29834-2 0  9996", "line2": "2 31327  98.9845 346.4207 0087249  14.7130 345.6604 15.10780170   775"}}, "geometry": {"type": "Point", "coordinates": [105.95830829565968, -79.86897175858329]}}, {"type": "Feature", "properties": {"norad_id": 31328, "name": "FENGYUN 1C DEB", "group": "fengyun-1c-debris", "lat": 35.36527215029044, "lon": -45.45376358036313, "alt_km": 867.1306974474564, "timestamp": "2025-12-12T20:43:07.317067+00:00", "meta": {"OBJECT_NAME": "FENGYUN 1C DEB", "OBJECT_ID": "1999-025BQG", "EPOCH": "2025-12-11T09:15:25.447680", "MEAN_MOTION": 14.28944, "ECCENTRICITY": 0.01035501, "INCLINATION": 98.4831, "RA_OF_ASC_NODE": 319.1892, "ARG_OF_PERICENTER": 220.4521, "MEAN_ANOMALY": 138.893, "EPHEMERIS_TYPE": 0, "CLASSIFICATION_TYPE": "U", "NORAD_CAT_ID": 31328, "ELEMENT_SET_NO": 999, "REV_AT_EPOCH": 97443, "BSTAR": 0.00013508206, "MEAN_MOTION_DOT": 3.18e-06, "MEAN_MOTION_DDOT": 0}, "tle": {"line1": "1 31328U 99025BQG 25345.38571120  .00000318  00000+0  13508-3 0  9999", "line2": "2 31328  98.4831 319.1892 0103550 220.4521 138.8930 14.28944000974436"}}, "geometry": {"type": "Point", "coordinates": [-45.45376358036313, 35.36527215029044]}}, {"type": "Feature", "properties": {"norad_id": 31330, "name": "FENGYUN 1C DEB", "group": "fengyun-1c-debris", "lat": -13.225278006710019, "lon": -30.783185544641007, "alt_km": 535.7608877862222, "timestamp": "2025-12-12T20:43:07.317077+00:00", "meta": {"OBJECT_NAME": "FENGYUN 1C DEB", "OBJECT_ID": "1999-025BQJ", "EPOCH": "2025-12-11T22:19:14.013120", "MEAN_MOTION": 15.10241279, "ECCENTRICITY": 0.0005233, "INCLINATION": 98.8854, "RA_OF_ASC_NODE": 150.2421, "ARG_OF_PERICENTER": 225.9724, "MEAN_ANOMALY": 295.8012, "EPHEMERIS_TYPE": 0, "CLASSIFICATION_TYPE": "U", "NORAD_CAT_ID": 31330, "ELEMENT_SET_NO": 999, "REV_AT_EPOCH": 97117, "BSTAR": 0.012091, "MEAN_MOTION_DOT": 0.00203312, "MEAN_MOTION_DDOT": 0}, "tle": {"line1": "1 31330U 99025BQJ 25345.93002330  .00203312  00000+0  12091-1 0  9998", "line2": "2 31330  98.8854 150.2421 0005233 225.9724 295.8012 15.10241279971177"}}, "geometry": {"type": "Point", "coordinates": [-30.783185544641007, -13.225278006710019]}}, {"type": "Feature", "properties": {"norad_id": 31331, "name": "FENGYUN 1C DEB", "group": "fengyun-1c-debris", "lat": 2.7009175392010953, "lon": 12.269533869311777, "alt_km": 932.828278639965, "timestamp": "2025-12-12T20:43:07.317087+00:00", "meta": {"OBJECT_NAME": "FENGYUN 1C DEB", "OBJECT_ID": "1999-025BQK", "EPOCH": "2025-12-11T06:59:13.035840", "MEAN_MOTION": 14.00618538, "ECCENTRICITY": 0.005317, "INCLINATION": 98.8724, "RA_OF_ASC_NODE": 11.1656, "ARG_OF_PERICENTER": 186.5995, "MEAN_ANOMALY": 173.4476, "EPHEMERIS_TYPE": 0, "CLASSIFICATION_TYPE": "U", "NORAD_CAT_ID": 31331, "ELEMENT_SET_NO": 999, "REV_AT_EPOCH": 63836, "BSTAR": 0.00045408515, "MEAN_MOTION_DOT": 6.41e-06, "MEAN_MOTION_DDOT": 0}, "tle": {"line1": "1 31331U 99025BQK 25345.29112310  .00000641  00000+0  45409-3 0  9999", "line2": "2 31331  98.8724  11.1656 0053170 186.5995 173.4476 14.00618538638364"}}, "geometry": {"type": "Point", "coordinates": [12.269533869311777, 2.7009175392010953]}}, {"type": "Feature", "properties": {"norad_id": 31332, "name": "FENGYUN 1C DEB", "group": "fengyun-1c-debris", "lat": -6.232984762290562, "lon": 176.23565107897383, "alt_km": 890.9347073063254, "timestamp": "2025-12-12T20:43:07.317097+00:00", "meta": {"OBJECT_NAME": "FENGYUN 1C DEB", "OBJECT_ID": "1999-025BQL", "EPOCH": "2025-12-12T06:31:27.172128", "MEAN_MOTION": 14.11840466, "ECCENTRICITY": 0.00499125, "INCLINATION": 98.7056, "RA_OF_ASC_NODE": 356.6205, "ARG_OF_PERICENTER": 26.5185, "MEAN_ANOMALY": 35.1121, "EPHEMERIS_TYPE": 0, "CLASSIFICATION_TYPE": "U", "NORAD_CAT_ID": 31332, "ELEMENT_SET_NO": 999, "REV_AT_EPOCH": 95965, "BSTAR": 0.0014476848, "MEAN_MOTION_DOT": 2.631e-05, "MEAN_MOTION_DDOT": 0}, "tle": {"line1": "1 31332U 99025BQL 25346.27184227  .00002631  00000+0  14477-2 0  9996", "line2": "2 31332  98.7056 356.6205 0049912  26.5185  35.1121 14.11840466959650"}}, "geometry": {"type": "Point", "coordinates": [176.23565107897383, -6.232984762290562]}}, {"type": "Feature", "properties": {"norad_id": 31333, "name": "FENGYUN 1C DEB", "group": "fengyun-1c-debris", "lat": 46.980583671142846, "lon": -7.709701292762751, "alt_km": 733.0968263172063, "timestamp": "2025-12-12T20:43:07.317107+00:00", "meta": {"OBJECT_NAME": "FENGYUN 1C DEB", "OBJECT_ID": "1999-025BQM", "EPOCH": "2025-12-12T07:02:00.981888", "MEAN_MOTION": 14.26538107, "ECCENTRICITY": 0.00987821, "INCLINATION": 98.4297, "RA_OF_ASC_NODE": 0.8851, "ARG_OF_PERICENTER": 27.7614, "MEAN_ANOMALY": 332.879, "EPHEMERIS_TYPE": 0, "CLASSIFICATION_TYPE": "U", "NORAD_CAT_ID": 31333, "ELEMENT_SET_NO": 999, "REV_AT_EPOCH": 96585, "BSTAR": 0.0010897793, "MEAN_MOTION_DOT": 2.726e-05, "MEAN_MOTION_DDOT": 0}, "tle": {"line1": "1 31333U 99025BQM 25346.29306692  .00002726  00000+0  10898-2 0  9999", "line2": "2 31333  98.4297   0.8851 0098782  27.7614 332.8790 14.26538107965859"}}, "geometry": {"type": "Point", "coordinates": [-7.709701292762751, 46.980583671142846]}}, {"type": "Feature", "properties": {"norad_id": 31336, "name": "FENGYUN 1C DEB", "group": "fengyun-1c-debris", "lat": 19.832053904873714, "lon": -134.83109581392503, "alt_km": 712.4675545263244, "timestamp": "2025-12-12T20:43:07.317117+00:00", "meta": {"OBJECT_NAME": "FENGYUN 1C DEB", "OBJECT_ID": "1999-025BQQ", "EPOCH": "2025-12-09T10:16:18.319584", "MEAN_MOTION": 14.38690668, "ECCENTRICITY": 0.00939549, "INCLINATION": 98.4655, "RA_OF_ASC_NODE": 38.7012, "ARG_OF_PERICENTER": 128.4001, "MEAN_ANOMALY": 248.57, "EPHEMERIS_TYPE": 0, "CLASSIFICATION_TYPE": "U", "NORAD_CAT_ID": 31336, "ELEMENT_SET_NO": 999, "REV_AT_EPOCH": 97743, "BSTAR": 0.00056753354, "MEAN_MOTION_DOT": 1.788e-05, "MEAN_MOTION_DDOT": 0}, "tle": {"line1": "1 31336U 99025BQQ 25343.42798981  .00001788  00000+0  56753-3 0  9998", "line2": "2 31336  98.4655  38.7012 0093954 128.4001 248.5700 14.38690668977439"}}, "geometry": {"type": "Point", "coordinates": [-134.83109581392503, 19.832053904873714]}}, {"type": "Feature", "properties": {"norad_id": 31338, "name": "FENGYUN 1C DEB", "group": "fengyun-1c-debris", "lat": 80.46935360905904, "lon": 120.83620210679236, "alt_km": 767.790608680104, "timestamp": "2025-12-12T20:43:07.317128+00:00", "meta": {"OBJECT_NAME": "FENGYUN 1C DEB", "OBJECT_ID": "1999-025BQS", "EPOCH": "2025-12-12T06:47:42.135648", "MEAN_MOTION": 14.20717591, "ECCENTRICITY": 0.00716141, "INCLINATION": 98.7168, "RA_OF_ASC_NODE": 186.2993, "ARG_OF_PERICENTER": 110.4179, "MEAN_ANOMALY": 250.4707, "EPHEMERIS_TYPE": 0, "CLASSIFICATION_TYPE": "U", "NORAD_CAT_ID": 31338, "ELEMENT_SET_NO": 999, "REV_AT_EPOCH": 63651, "BSTAR": 0.0038476398, "MEAN_MOTION_DOT": 8.479e-05, "MEAN_MOTION_DDOT": 0}, "tle": {"line1": "1 31338U 99025BQS 25346.28312657  .00008479  00000+0  38476-2 0  9994", "line2": "2 31338  98.7168 186.2993 0071614 110.4179 250.4707 14.20717591636512"}}, "geometry": {"type": "Point", "coordinates": [120.83620210679236, 80.46935360905904]}}, {"type": "Feature", "properties": {"norad_id": 31339, "name": "FENGYUN 1C DEB", "group": "fengyun-1c-debris", "lat": 72.351250983633, "lon": -147.65620446159653, "alt_km": 886.2493271055173, "timestamp": "2025-12-12T20:43:07.317138+00:00", "meta": {"OBJECT_NAME": "FENGYUN 1C DEB", "OBJECT_ID": "1999-025BQT", "EPOCH": "2025-12-11T11:54:47.352960", "MEAN_MOTION": 14.12164083, "ECCENTRICITY": 0.00743322, "INCLINATION": 98.7144, "RA_OF_ASC_NODE": 2.1939, "ARG_OF_PERICENTER": 328.8022, "MEAN_ANOMALY": 30.8748, "EPHEMERIS_TYPE": 0, "CLASSIFICATION_TYPE": "U", "NORAD_CAT_ID": 31339, "ELEMENT_SET_NO": 999, "REV_AT_EPOCH": 95660, "BSTAR": 0.0015213528, "MEAN_MOTION_DOT": 2.824e-05, "MEAN_MOTION_DDOT": 0}, "tle": {"line1": "1 31339U 99025BQT 25345.49638140  .00002824  00000+0  15214-2 0  9998", "line2": "2 31339  98.7144   2.1939 0074332 328.8022  30.8748 14.12164083956608"}}, "geometry": {"type": "Point", "coordinates": [-147.65620446159653, 72.351250983633]}}, {"type": "Feature", "properties": {"norad_id": 31341, "name": "FENGYUN 1C DEB", "group": "fengyun-1c-debris", "lat": 52.390514568125134, "lon": -139.2412421089452, "alt_km": 738.6249615440584, "timestamp": "2025-12-12T20:43:07.317149+00:00", "meta": {"OBJECT_NAME": "FENGYUN 1C DEB", "OBJECT_ID": "1999-025BQV", "EPOCH": "2025-12-12T02:05:41.254656", "MEAN_MOTION": 14.53311722, "ECCENTRICITY": 0.00530409, "INCLINATION": 99.5557, "RA_OF_ASC_NODE": 27.2444, "ARG_OF_PERICENTER": 348.7438, "MEAN_ANOMALY": 39.677, "EPHEMERIS_TYPE": 0, "CLASSIFICATION_TYPE": "U", "NORAD_CAT_ID": 31341, "ELEMENT_SET_NO": 999, "REV_AT_EPOCH": 97609, "BSTAR": 0.0020227452, "MEAN_MOTION_DOT": 8.51e-05, "MEAN_MOTION_DDOT": 0}, "tle": {"line1": "1 31341U 99025BQV 25346.08728304  .00008510  00000+0  20227-2 0  9997", "line2": "2 31341  99.5557  27.2444 0053040 348.7438  39.6770 14.53311722976098"}}, "geometry": {"type": "Point", "coordinates": [-139.2412421089452, 52.390514568125134]}}]}